IRIDIUM 26              
1 24903U 97043A   25058.65908730  .00001167  00000+0  38754-3 0  9993
2 24903  86.4023 156.6118 0002345  95.7132 264.4333 14.37000630441011
IRIDIUM 22              
1 24907U 97043E   25058.56870071  .00001030  00000+0  34932-3 0  9996
2 24907  86.4031 160.0889 0002094  94.6497 265.4939 14.35830181441047
DUMMY MASS 1            
1 24925U 97048A   25058.72232134  .00001355  00000+0  14893-3 0  9995
2 24925  86.3405 185.8937 0007260 156.5202 203.6355 14.86825323488867
DUMMY MASS 2            
1 24926U 97048B   25058.59895307  .00001352  00000+0  14946-3 0  9994
2 24926  86.3403 187.5359 0007559 169.2955 190.8432 14.86577944488620
IRIDIUM 29              
1 24944U 97051A   25058.76904926  .00001293  00000+0  43610-3 0  9999
2 24944  86.4017 189.7391 0001824  94.5695 265.5710 14.36309898437564
IRIDIUM 33              
1 24946U 97051C   25058.63232509  .00000918  00000+0  31676-3 0  9990
2 24946  86.3933 189.0485 0009801  79.7681 280.4620 14.34784238437044
IRIDIUM 28              
1 24948U 97051E   25058.60440516  .00001231  00000+0  40694-3 0  9997
2 24948  86.4026 187.3891 0002482  92.4639 267.6842 14.37242731438173
IRIDIUM 36              
1 24967U 97056C   25058.72327206  .00001313  00000+0  43293-3 0  9995
2 24967  86.3970 218.9291 0002096  85.6860 274.4577 14.37441396436499
